{
  "type": "FeatureCollection",
  "features": [
    {
      "type": "Feature",
      "properties": {
        "norad_id": 33412,
        "name": "COSMO-SKYMED 3",
        "group": "resource",
        "lat": -7.256936702445251,
        "lon": 17.10171653183665,
        "alt_km": 543.609929055865,
        "timestamp": "2025-12-13T16:48:32.370074+00:00",
        "meta_object_name": "COSMO-SKYMED 3",
        "meta_object_id": "2008-054A",
        "meta_epoch": "2025-12-13T00:01:38.887392",
        "meta_mean_motion": 15.0536584,
        "meta_eccentricity": 0.00161009,
        "meta_inclination": 97.8474,
        "meta_ra_of_asc_node": 197.3972,
        "meta_arg_of_pericenter": 172.7689,
        "meta_mean_anomaly": 187.3772,
        "meta_ephemeris_type": 0,
        "meta_classification_type": "U",
        "meta_norad_cat_id": 33412,
        "meta_element_set_no": 999,
        "meta_rev_at_epoch": 92891,
        "meta_bstar": 0.00068654791,
        "meta_mean_motion_dot": 9.808e-05,
        "meta_mean_motion_ddot": 0,
        "tle_line1": "1 33412U 08054A   25347.00114453  .00009808  00000+0  68655-3 0  9996",
        "tle_line2": "2 33412  97.8474 197.3972 0016100 172.7689 187.3772 15.05365840928911"
      },
      "geometry": {
        "type": "Point",
        "coordinates": [
          17.10171653183665,
          -7.256936702445251
        ]
      }
    },
    {
      "type": "Feature",
      "properties": {
        "norad_id": 33446,
        "name": "YAOGAN-4",
        "group": "resource",
        "lat": 82.07324539400537,
        "lon": -173.9182345113548,
        "alt_km": 619.4906731203309,
        "timestamp": "2025-12-13T16:48:32.370089+00:00",
        "meta_object_name": "YAOGAN-4",
        "meta_object_id": "2008-061A",
        "meta_epoch": "2025-12-12T19:20:52.548864",
        "meta_mean_motion": 14.8268323,
        "meta_eccentricity": 0.00135668,
        "meta_inclination": 97.918,
        "meta_ra_of_asc_node": 276.9049,
        "meta_arg_of_pericenter": 323.087,
        "meta_mean_anomaly": 36.9408,
        "meta_ephemeris_type": 0,
        "meta_classification_type": "U",
        "meta_norad_cat_id": 33446,
        "meta_element_set_no": 999,
        "meta_rev_at_epoch": 91804,
        "meta_bstar": 0.00030747624,
        "meta_mean_motion_dot": 2.43e-05,
        "meta_mean_motion_ddot": 0,
        "tle_line1": "1 33446U 08061A   25346.80616376  .00002430  00000+0  30748-3 0  9995",
        "tle_line2": "2 33446  97.9180 276.9049 0013566 323.0870  36.9408 14.82683230918046"
      },
      "geometry": {
        "type": "Point",
        "coordinates": [
          -173.9182345113548,
          82.07324539400537
        ]
      }
    },
    {
      "type": "Feature",
      "properties": {
        "norad_id": 33492,
        "name": "GOSAT (IBUKI)",
        "group": "resource",
        "lat": 81.91753528093038,
        "lon": 6.75176683015274,
        "alt_km": 660.7498378662503,
        "timestamp": "2025-12-13T16:48:32.370101+00:00",
        "meta_object_name": "GOSAT (IBUKI)",
        "meta_object_id": "2009-002A",
        "meta_epoch": "2025-12-12T20:45:52.462656",
        "meta_mean_motion": 14.6755557,
        "meta_eccentricity": 9.347e-05,
        "meta_inclination": 98.0769,
        "meta_ra_of_asc_node": 95.4667,
        "meta_arg_of_pericenter": 91.8424,
        "meta_mean_anomaly": 268.2888,
        "meta_ephemeris_type": 0,
        "meta_classification_type": "U",
        "meta_norad_cat_id": 33492,
        "meta_element_set_no": 999,
        "meta_rev_at_epoch": 90413,
        "meta_bstar": 0.00025626852,
        "meta_mean_motion_dot": 1.406e-05,
        "meta_mean_motion_ddot": 0,
        "tle_line1": "1 33492U 09002A   25346.86519054  .00001406  00000+0  25627-3 0  9995",
        "tle_line2": "2 33492  98.0769  95.4667 0000934  91.8424 268.2888 14.67555570904137"
      },
      "geometry": {
        "type": "Point",
        "coordinates": [
          6.75176683015274,
          81.91753528093038
        ]
      }
    },
    {
      "type": "Feature",
      "properties": {
        "norad_id": 35681,
        "name": "DEIMOS-1",
        "group": "resource",
        "lat": -13.25156162046924,
        "lon": -33.570988394481034,
        "alt_km": 650.7228439147775,
        "timestamp": "2025-12-13T16:48:32.370112+00:00",
        "meta_object_name": "DEIMOS-1",
        "meta_object_id": "2009-041A",
        "meta_epoch": "2025-12-12T23:39:15.020064",
        "meta_mean_motion": 14.74953676,
        "meta_eccentricity": 0.00027176,
        "meta_inclination": 97.7149,
        "meta_ra_of_asc_node": 147.5772,
        "meta_arg_of_pericenter": 78.7966,
        "meta_mean_anomaly": 281.355,
        "meta_ephemeris_type": 0,
        "meta_classification_type": "U",
        "meta_norad_cat_id": 35681,
        "meta_element_set_no": 999,
        "meta_rev_at_epoch": 87943,
        "meta_bstar": 0.00018224792,
        "meta_mean_motion_dot": 1.177e-05,
        "meta_mean_motion_ddot": 0,
        "tle_line1": "1 35681U 09041A   25346.98559051  .00001177  00000+0  18225-3 0  9995",
        "tle_line2": "2 35681  97.7149 147.5772 0002717  78.7966 281.3550 14.74953676879432"
      },
      "geometry": {
        "type": "Point",
        "coordinates": [
          -33.570988394481034,
          -13.25156162046924
        ]
      }
    },
    {
      "type": "Feature",
      "properties": {
        "norad_id": 35682,
        "name": "DUBAISAT-1",
        "group": "resource",
        "lat": 52.279245768615475,
        "lon": -51.18745273451235,
        "alt_km": 648.2114351458931,
        "timestamp": "2025-12-13T16:48:32.370123+00:00",
        "meta_object_name": "DUBAISAT-1",
        "meta_object_id": "2009-041B",
        "meta_epoch": "2025-12-12T22:19:16.158432",
        "meta_mean_motion": 14.74605669,
        "meta_eccentricity": 0.00095432,
        "meta_inclination": 97.9784,
        "meta_ra_of_asc_node": 117.6068,
        "meta_arg_of_pericenter": 313.9999,
        "meta_mean_anomaly": 46.0423,
        "meta_ephemeris_type": 0,
        "meta_classification_type": "U",
        "meta_norad_cat_id": 35682,
        "meta_element_set_no": 999,
        "meta_rev_at_epoch": 87764,
        "meta_bstar": 0.00034341756,
        "meta_mean_motion_dot": 2.24e-05,
        "meta_mean_motion_ddot": 0,
        "tle_line1": "1 35682U 09041B   25346.93004813  .00002240  00000+0  34342-3 0  9992",
        "tle_line2": "2 35682  97.9784 117.6068 0009543 313.9999  46.0423 14.74605669877642"
      },
      "geometry": {
        "type": "Point",
        "coordinates": [
          -51.18745273451235,
          52.279245768615475
        ]
      }
    },
    {
      "type": "Feature",
      "properties": {
        "norad_id": 35931,
        "name": "OCEANSAT-2",
        "group": "resource",
        "lat": 44.86421726473157,
        "lon": -20.070300814032265,
        "alt_km": 879.4421521231152,
        "timestamp": "2025-12-13T16:48:32.370133+00:00",
        "meta_object_name": "OCEANSAT-2",
        "meta_object_id": "2009-051A",
        "meta_epoch": "2025-12-12T23:26:10.044960",
        "meta_mean_motion": 13.99624602,
        "meta_eccentricity": 0.00162096,
        "meta_inclination": 98.2223,
        "meta_ra_of_asc_node": 347.5532,
        "meta_arg_of_pericenter": 44.4402,
        "meta_mean_anomaly": 315.8062,
        "meta_ephemeris_type": 0,
        "meta_classification_type": "U",
        "meta_norad_cat_id": 35931,
        "meta_element_set_no": 999,
        "meta_rev_at_epoch": 85328,
        "meta_bstar": -7.1229804e-05,
        "meta_mean_motion_dot": -1.42e-06,
        "meta_mean_motion_ddot": 0,
        "tle_line1": "1 35931U 09051A   25346.97650515 -.00000142  00000+0 -71230-4 0  9999",
        "tle_line2": "2 35931  98.2223 347.5532 0016209  44.4402 315.8062 13.99624602853287"
      },
      "geometry": {
        "type": "Point",
        "coordinates": [
          -20.070300814032265,
          44.86421726473157
        ]
      }
    },
    {
      "type": "Feature",
      "properties": {
        "norad_id": 35946,
        "name": "WORLDVIEW-2 (WV-2)",
        "group": "resource",
        "lat": -60.572023828936395,
        "lon": 74.10387214931222,
        "alt_km": 775.5038050728508,
        "timestamp": "2025-12-13T16:48:32.370144+00:00",
        "meta_object_name": "WORLDVIEW-2 (WV-2)",
        "meta_object_id": "2009-055A",
        "meta_epoch": "2025-12-12T22:43:21.709920",
        "meta_mean_motion": 14.37724154,
        "meta_eccentricity": 0.0005172,
        "meta_inclination": 98.4787,
        "meta_ra_of_asc_node": 58.0277,
        "meta_arg_of_pericenter": 70.0464,
        "meta_mean_anomaly": 290.128,
        "meta_ephemeris_type": 0,
        "meta_classification_type": "U",
        "meta_norad_cat_id": 35946,
        "meta_element_set_no": 999,
        "meta_rev_at_epoch": 84888,
        "meta_bstar": 0.00010332393,
        "meta_mean_motion_dot": 2.67e-06,
        "meta_mean_motion_ddot": 0,
        "tle_line1": "1 35946U 09055A   25346.94677905  .00000267  00000+0  10332-3 0  9999",
        "tle_line2": "2 35946  98.4787  58.0277 0005172  70.0464 290.1280 14.37724154848883"
      },
      "geometry": {
        "type": "Point",
        "coordinates": [
          74.10387214931222,
          -60.572023828936395
        ]
      }
    }
  ]
}